IRIDIUM 150             
1 43257U 18030J   24351.74434365  .00000013  00000+0 -22495-5 0  9995
2 43257  86.3985 159.3099 0001742  96.8191 263.3203 14.34217720351690
IRIDIUM 143             
1 43258U 18030K   24352.00438906  .00000074  00000+0  19415-4 0  9994
2 43258  86.3990 159.2726 0001505 100.5604 259.5761 14.34218156351692
IRIDIUM 161             
1 43478U 18047C   24351.94068974  .00000829  00000+0  24034-3 0  9992
2 43478  86.4481 317.1609 0002153  89.4342 270.7105 14.43282028346208
IRIDIUM 152             
1 43479U 18047D   24351.97710722  .00000592  00000+0  20417-3 0  9999
2 43479  86.3954 317.0051 0002235  84.1740 275.9710 14.34217676344066
IRIDIUM 147             
1 43480U 18047E   24351.98345170  .00000534  00000+0  18374-3 0  9998
2 43480  86.3949 316.9978 0002580  83.8995 276.2495 14.34217907344059
IRIDIUM 110             
1 43481U 18047F   24351.92002677  .00000566  00000+0  19501-3 0  9993
2 43481  86.3951 317.1022 0002483  75.0987 285.0483 14.34219558344039
IRIDIUM 162             
1 43482U 18047G   24352.35036140  .00000804  00000+0  23303-3 0  9994
2 43482  86.4481 316.8872 0002321  79.2672 280.8790 14.43286179346259
IRIDIUM 160             
1 43569U 18061A   24352.07516778  .00000112  00000+0  33067-4 0  9996
2 43569  86.3960 285.3960 0002435  85.2263 274.9210 14.34216933334959
